[{"OBJECT_NAME":"STARLINK-6030","OBJECT_ID":"2023-046Q","EPOCH":"2026-03-08T14:54:09.315360","MEAN_MOTION":15.0253491,"ECCENTRICITY":0.00011807,"INCLINATION":43.0021,"RA_OF_ASC_NODE":164.5463,"ARG_OF_PERICENTER":256.1191,"MEAN_ANOMALY":103.952,"EPHEMERIS_TYPE":0,"CLASSIFICATION_TYPE":"U","NORAD_CAT_ID":56107,"ELEMENT_SET_NO":999,"REV_AT_EPOCH":16190,"BSTAR":3.118355e-6,"MEAN_MOTION_DOT":-1.61e-6,"MEAN_MOTION_DDOT":0},{"OBJECT_NAME":"SL-8 DEB","OBJECT_ID":"1972-043D","EPOCH":"2026-03-09T22:05:55.512096","MEAN_MOTION":15.0117212,"ECCENTRICITY":0.00057803,"INCLINATION":74.0604,"RA_OF_ASC_NODE":30.4168,"ARG_OF_PERICENTER":131.677,"MEAN_ANOMALY":228.4914,"EPHEMERIS_TYPE":0,"CLASSIFICATION_TYPE":"U","NORAD_CAT_ID":6065,"ELEMENT_SET_NO":999,"REV_AT_EPOCH":84295,"BSTAR":0.0010977341,"MEAN_MOTION_DOT":0.00014073,"MEAN_MOTION_DDOT":0}]
